HORYU-4                 
1 41340U 16012D   20270.47694466  .00000627  00000-0  40624-4 0  9994
2 41340  31.0059  48.4041 0013773  70.9565 289.2562 15.01562517253070
E-ST@R-II               
1 41459U 16025D   20270.55048758  .00001226  00000-0  65550-4 0  9996
2 41459  98.1118  25.8715 0163329 231.2617 127.3948 15.06650212242669
AAUSAT 4                
1 41460U 16025E   20270.39717675  .00003798  00000-0  18657-3 0  9992
2 41460  98.1112  28.4108 0152607 219.1282 139.8826 15.09075399242865
BEESAT-4                
1 41619U 16040W   20270.20373589  .00001979  00000-0  83861-4 0  9996
2 41619  97.3094 327.3121 0011107 175.5248 184.6091 15.24250175224746
CANX-7                  
1 41788U 16059F   20270.51082787  .00006421  00000-0  85983-3 0  9997
2 41788  98.2585   1.0212 0021579 338.0113  22.0380 14.79639773214756
RAVAN                   
1 41849U 16067B   20270.36574829  .00000140  00000-0  16854-4 0  9994
2 41849  97.9405  21.9862 0007801 268.2039  91.8289 14.98633872211738
CELTEE 1                
1 41850U 16067C   20270.25429362  .00000849  00000-0  78662-4 0  9996
2 41850  97.9345  19.2945 0007073 271.5387  88.5024 14.97228103211588
OPTICUBE 04             
1 41851U 16067D   20270.26934341  .00000234  00000-0  25691-4 0  9998
2 41851  97.9340  18.8735 0007211 277.0795  82.9606 14.96960026211562
AEROCUBE 8D             
1 41852U 16067E   20270.28575149 -.00000222  00000-0 -14003-4 0  9992
2 41852  97.9338  18.7327 0008374 276.7699  83.2569 14.96960538211544
AEROCUBE 8C             
1 41853U 16067F   20270.25288264  .00000887  00000-0  82489-4 0  9997
2 41853  97.9335  18.5936 0008306 276.4978  83.5297 14.96925281211534
PROMETHEUS 2-1          
1 41854U 16067G   20270.26685553  .00000853  00000-0  78861-4 0  9993
2 41854  97.9354  19.0027 0008473 276.3663  83.6594 14.97278363211554
PROMETHEUS 2-3          
1 41855U 16067H   20270.26666330  .00000877  00000-0  80874-4 0  9999
2 41855  97.9356  19.0401 0008654 276.7525  83.2711 14.97287517211553
INS-1B                  
1 41954U 17008G   20270.46822224  .00001770  00000-0  73727-4 0  9995
2 41954  97.3448 333.0203 0007554 312.2548  47.8049 15.25005883200764
BGUSAT                  
1 41999U 17008BD  20270.14736395  .00003713  00000-0  13907-3 0  9994
2 41999  97.3575 337.4322 0006464 323.5488  36.5311 15.27884375200323
DIDO-2                  
1 42000U 17008BE  20270.45337325  .00001232  00000-0  52744-4 0  9999
2 42000  97.3455 333.4710 0007475 335.0375  25.0500 15.24635363200159
PEASSS                  
1 42015U 17008BV  20270.41959660  .00001651  00000-0  67354-4 0  9991
2 42015  97.3485 335.2487 0005475 342.0876  18.0169 15.25819108200741
AL-FARABI 1             
1 42016U 17008BW  20270.44887684  .00002200  00000-0  86471-4 0  9993
2 42016  97.3516 336.4942 0005250 341.2178  18.8866 15.26719000200937
NAYIF-1 (EO-88)         
1 42017U 17008BX  20270.42484016  .00002149  00000-0  84417-4 0  9994
2 42017  97.3510 336.4805 0005299 340.5861  19.5175 15.26761383200958
UCLSAT                  
1 42765U 17036A   20270.42835597  .00001702  00000-0  73594-4 0  9997
2 42765  97.2906 321.9119 0012168  37.8891 322.3200 15.23734585181958
LITUANICASAT-2          
1 42768U 17036D   20270.43042739  .00003441  00000-0  14273-3 0  9999
2 42768  97.2971 322.0560 0015047  26.7424 333.4587 15.24425662181228
AALTO-1                 
1 42775U 17036L   20270.37771629  .00001039  00000-0  48416-4 0  9995
2 42775  97.2880 319.3891 0014574  31.2563 328.9537 15.21979456181024
URSA MAIOR              
1 42776U 17036M   20270.42026691  .00001185  00000-0  54491-4 0  9996
2 42776  97.2892 319.7595 0014359  30.9331 329.2749 15.22174633181049
COMPASS 2               
1 42777U 17036N   20270.46465917  .00002261  00000-0  95460-4 0  9996
2 42777  97.2954 322.4660 0012797  28.8315 331.3627 15.24208278181184
DIAMOND RED             
1 42783U 17036U   20270.40391826  .00001387  00000-0  61785-4 0  9995
2 42783  97.2906 321.0498 0012929  39.8437 320.3747 15.23010224181111
PEGASUS                 
1 42784U 17036V   20270.40883118  .00001584  00000-0  69345-4 0  9995
2 42784  97.2910 321.5412 0012752  38.6446 321.5701 15.23412656181140
DIAMOND GREEN           
1 42785U 17036W   20270.20567563  .00001398  00000-0  62250-4 0  9998
2 42785  97.2908 320.8960 0012872  41.1140 319.1065 15.23005331181156
DIAMOND BLUE            
1 42786U 17036X   20270.40191253  .00001375  00000-0  61268-4 0  9993
2 42786  97.2908 321.0812 0012700  40.7612 319.4573 15.23010211181188
NUDTSAT                 
1 42787U 17036Y   20270.63857869  .00001376  00000-0  58172-4 0  9992
2 42787  97.2960 323.4035 0012819  29.1796 331.0155 15.24815570181116
SUCHAI                  
1 42788U 17036Z   20270.39549530  .00001903  00000-0  81303-4 0  9997
2 42788  97.2920 322.2130 0012227  37.1763 323.0319 15.24000040181258
SKCUBE                  
1 42789U 17036AA  20270.18987111  .00001769  00000-0  76188-4 0  9991
2 42789  97.2914 321.8335 0012163  38.2472 321.9626 15.23825066181139
VZLUSAT-1               
1 42790U 17036AB  20270.43175362  .00002813  00000-0  11605-3 0  9991
2 42790  97.2944 323.1940 0011527  35.6002 324.6003 15.24802966181239
ROBUSTA-1B              
1 42792U 17036AD  20270.19652285  .00001879  00000-0  80263-4 0  9998
2 42792  97.2917 322.1235 0011743  38.8094 321.3984 15.24026012181167
CICERO 6                
1 42793U 17036AE  20270.36028422  .00001243  00000-0  55209-4 0  9995
2 42793  97.2890 321.5542 0011176  41.3743 318.8338 15.23299913181224
D-SAT                   
1 42794U 17036AF  20270.49083527  .00000417  00000-0  41207-4 0  9992
2 42794  97.4870 298.1073 0126801  28.4034 332.4020 14.91324268177753
CORVUS BC2              
1 42846U 17042X   20270.23238996  .00000184  00000-0  23289-4 0  9992
2 42846  97.5071 149.1670 0008373 308.0522  51.9942 14.92140374174438
CORVUS BC1              
1 42847U 17042Y   20270.42239635  .00000349  00000-0  39400-4 0  9990
2 42847  97.5073 149.5360 0007992 306.6241  53.4243 14.92242255174464
MIRATA                  
1 43015U 17073C   20270.49858945  .00001580  00000-0  12555-3 0  9999
2 43015  97.7115 178.8519 0254234  78.9351 284.0338 14.79806062154165
MAKERSAT 0              
1 43016U 17073D   20270.49102504  .00001088  00000-0  88171-4 0  9994
2 43016  97.7150 179.0032 0257142  80.2838 282.7313 14.79328437154146
DELLINGR (RBLE)         
1 43021U 98067NJ  20270.31922290  .00031454  00000-0  22398-3 0  9993
2 43021  51.6345 123.3758 0001758 115.0056 245.1125 15.73545843162738
AEROCUBE 7B (OCSD B)    
1 43042U 17071F   20270.47080008  .00007378  00000-0  16647-3 0  9999
2 43042  51.6368 290.6362 0005043  57.9807 302.1669 15.44292557157981
AEROCUBE 7C (OCSD C)    
1 43043U 17071G   20270.47587164  .00007019  00000-0  15895-3 0  9991
2 43043  51.6368 290.6852 0005267  61.4863 298.6654 15.44266035157958
CHEFSAT                 
1 43044U 17071H   20270.45070682  .00013918  00000-0  25287-3 0  9993
2 43044  51.6363 272.0861 0005138  67.6381 292.5152 15.49828617158208
ASGARDIA 1              
1 43049U 17071N   20270.46776736  .00006393  00000-0  14559-3 0  9991
2 43049  51.6380 289.9671 0003026  74.8045 285.3276 15.44270417157962
ISARA                   
1 43050U 17071P   20270.50537498  .00014414  00000-0  27303-3 0  9992
2 43050  51.6344 275.3028 0003062  75.5468 284.5860 15.48603508158164
PROPCUBE 2 (FAUNA)      
1 43052U 17071R   20270.42265849  .00006592  00000-0  14732-3 0  9993
2 43052  51.6373 288.1816 0003005  72.5438 287.5877 15.44778083157972
CORVUS BC3              
1 43118U 18004H   20270.44785905  .00001173  00000-0  52067-4 0  9999
2 43118  97.4355 339.8580 0011755  62.7818 297.4616 15.23507255150375
MICROMAS-2A             
1 43131U 18004W   20270.47073149  .00003198  00000-0  12861-3 0  9993
2 43131  97.4414 341.9873 0010483  61.7213 298.5081 15.25601744150491
SPACEBEE-4              
1 43139U 18004AE  20270.48037992  .00004936  00000-0  18864-3 0  9998
2 43139  97.4452 343.4359 0009749  62.6669 297.5561 15.27037913150579
SPACEBEE-3              
1 43140U 18004AF  20270.49291590  .00006059  00000-0  22398-3 0  9992
2 43140  97.4471 344.3040 0009340  61.2632 298.9545 15.28050460150627
SPACEBEE-2              
1 43141U 18004AG  20270.51659924  .00006421  00000-0  23472-3 0  9992
2 43141  97.4486 344.6544 0009248  60.4722 299.7439 15.28396176150644
SPACEBEE-1              
1 43142U 18004AH  20270.45941317  .00006930  00000-0  25001-3 0  9991
2 43142  97.4491 344.9219 0009178  60.5029 299.7125 15.28800154150644
CICERO 7                
1 43143U 18004AJ  20270.27337946  .00002875  00000-0  11589-3 0  9999
2 43143  97.4389 341.9482 0008885  71.1414 289.0787 15.25613718150483
GOMX-4B                 
1 43196U 18015E   20270.31380032  .00000600  00000-0  27302-4 0  9993
2 43196  97.4514  38.1640 0020200 107.5574 252.7873 15.24446733147263
GOMX-4A                 
1 43197U 18015F   20270.45244279  .00000957  00000-0  41511-4 0  9994
2 43197  97.4501  38.4263 0020425 108.0955 325.0424 15.24645199147300
UBAKUSAT                
1 43467U 98067NQ  20270.03079469  .00072489  00000-0  35020-3 0  9996
2 43467  51.6326 121.9967 0001751 158.1313 201.9764 15.81890773135995
CUBERRT                 
1 43546U 98067NU  20269.96511425  .00032315  00000-0  17988-3 0  9994
2 43546  51.6318 123.8569 0001743 138.7315 221.3819 15.79150910126097
TEMPEST-D               
1 43547U 98067NV  20270.41995572  .00012134  00000-0  13200-3 0  9996
2 43547  51.6354 161.6599 0005325  80.6630 279.4967 15.63891485125310
RAINCUBE                
1 43548U 98067NW  20270.51927521  .00091024  00000-0  45478-3 0  9994
2 43548  51.6290 128.2299 0003712 144.9307 215.1940 15.81068336126218
HALOSAT                 
1 43549U 98067NX  20270.34017013  .00061744  00000-0  33442-3 0  9996
2 43549  51.6330 130.9207 0003827 143.9134 216.2126 15.79454102125727
